GLOBALSTAR M035         
1 25851U 99037A   25051.49677088 -.00000029  00000+0  13225-2 0  9997
2 25851  51.9978 315.2009 0013757 149.6045  21.3190 11.04536564 83365
GLOBALSTAR M032         
1 25852U 99037B   25051.58614768  .00000019  00000+0  27649-2 0  9997
2 25852  51.9946 148.2383 0010537 333.2185  26.8070 11.19058584121737
GLOBALSTAR M051         
1 25853U 99037C   25051.48784307 -.00000035  00000+0  89991-3 0  9992
2 25853  51.9826 322.4193 0001333  24.4410 335.6464 11.42203015119051
GLOBALSTAR M030         
1 25854U 99037D   25051.52167967 -.00000126  00000+0 -10834-2 0  9996
2 25854  51.9870 135.8570 0004074 192.8002 167.2711 11.55101412136569
GLOBALSTAR M048         
1 25872U 99041A   25051.33478017 -.00000052  00000+0  49996-3 0  9990
2 25872  51.9339 253.3037 0013010 347.4598 184.1423 11.33854759111725
GLOBALSTAR M026         
1 25873U 99041B   25051.36528519 -.00000097  00000+0 -12299-2 0  9992
2 25873  52.0009  74.6767 0001655  75.4113 297.7498 11.06828166135552
GLOBALSTAR M043         
1 25874U 99041C   25051.61471042 -.00000070  00000+0 -59639-4 0  9991
2 25874  51.9442 355.6360 0013497 112.7367  57.7281 11.25689387109743
GLOBALSTAR M028         
1 25875U 99041D   25051.62339493 -.00000050  00000+0  32173-3 0  9996
2 25875  51.9614 180.6355 0063679 177.6154 182.5021 12.50577616175591
